NORAD_CAT_ID,OBJECT_NAME,OBJECT_TYPE,EPOCH,MEAN_MOTION,ECCENTRICITY,INCLINATION,RA_OF_ASC_NODE,ARG_OF_PERICENTER,MEAN_ANOMALY,BSTAR,MEAN_MOTION_DOT,MEAN_MOTION_DDOT,TLE_LINE0,TLE_LINE1,TLE_LINE2,SEMIMAJOR_AXIS,PERIOD,APOGEE,PERIGEE,DECAYED
54159.0,STARLINK-5294,PAYLOAD,2023-09-04 12:21:04,15.08847784,0.0001667,53.2175,171.5802,79.5796,280.5384,0.00016317,2.31e-05,0.0,0 STARLINK-5294,1 54159U 22141C   23247.51464049  .00002310  00000-0  16317-3 0  9992,2 54159  53.2175 171.5802 0001667  79.5796 280.5384 15.08847784 47256,6917.857,95.437,540.875,538.568,0.0
54159.0,STARLINK-5294,PAYLOAD,2023-09-05 01:04:09,15.08858617,0.0001491,53.2174,169.2027,80.743,279.3731,0.00019336,2.792e-05,0.0,0 STARLINK-5294,1 54159U 22141C   23248.04455032  .00002792  00000-0  19336-3 0  9991,2 54159  53.2174 169.2027 0001491  80.7430 279.3731 15.08858617 47330,6917.823,95.436,540.72,538.657,0.0
54159.0,STARLINK-5294,PAYLOAD,2023-09-06 00:54:58,15.08831092,0.0001332,53.2169,164.7423,88.8995,271.215,0.00010493,1.382e-05,0.0,0 STARLINK-5294,1 54159U 22141C   23249.03817194  .00001382  00000-0  10493-3 0  9991,2 54159  53.2169 164.7423 0001332  88.8995 271.2150 15.08831092 47483,6917.908,95.438,540.694,538.851,0.0
54159.0,STARLINK-5294,PAYLOAD,2023-09-06 18:24:12,15.08842373,0.000124,53.2165,161.4713,88.9228,271.1906,-6.138e-05,-1.265e-05,0.0,0 STARLINK-5294,1 54159U 22141C   23249.76680911 -.00001265  00000-0 -61380-4 0  9990,2 54159  53.2165 161.4713 0001240  88.9228 271.1906 15.08842373 47597,6917.873,95.437,540.596,538.88,0.0
54159.0,STARLINK-5294,PAYLOAD,2023-09-07 03:56:30,15.08852838,0.0001223,53.2162,159.6868,85.2139,274.8993,-5.2257e-05,-1.12e-05,0.0,0 STARLINK-5294,1 54159U 22141C   23250.16424115 -.00001120  00000-0 -52257-4 0  9991,2 54159  53.2162 159.6868 0001223  85.2139 274.8993 15.08852838 47656,6917.841,95.437,540.552,538.86,0.0
54159.0,STARLINK-5294,PAYLOAD,2023-09-07 18:14:59,15.08802086,0.0001459,53.2149,157.01,89.8962,270.2197,0.00049354,7.567e-05,0.0,0 STARLINK-5294,1 54159U 22141C   23250.76041436  .00007567  00000-0  49354-3 0  9990,2 54159  53.2149 157.0100 0001459  89.8962 270.2197 15.08802086 47743,6917.996,95.44,540.871,538.852,0.0
54159.0,STARLINK-5294,PAYLOAD,2023-09-08 00:36:32,15.08794763,0.0001324,53.2136,155.8226,76.4082,283.7057,0.00068285,0.00010583,0.0,0 STARLINK-5294,1 54159U 22141C   23251.02537945  .00010583  00000-0  68285-3 0  9991,2 54159  53.2136 155.8226 0001324  76.4082 283.7057 15.08794763 47780,6918.019,95.44,540.8,538.968,0.0
54159.0,STARLINK-5294,PAYLOAD,2023-09-08 18:05:46,15.08838094,0.0001535,53.2115,152.5511,92.1862,267.9306,6.9138e-05,8.12e-06,0.0,0 STARLINK-5294,1 54159U 22141C   23251.75401322  .00000812  00000-0  69138-4 0  9993,2 54159  53.2115 152.5511 0001535  92.1862 267.9306 15.08838094 47892,6917.886,95.438,540.813,538.689,0.0
54159.0,STARLINK-5294,PAYLOAD,2023-09-09 09:59:37,15.08850125,0.0001143,53.2169,149.5774,87.3424,272.7699,-2.7846e-05,-7.31e-06,0.0,0 STARLINK-5294,1 54159U 22141C   23252.41640650 -.00000731  00000-0 -27846-4 0  9998,2 54159  53.2169 149.5774 0001143  87.3424 272.7699 15.08850125 47992,6917.849,95.437,540.505,538.924,0.0
54159.0,STARLINK-5294,PAYLOAD,2023-09-10 01:53:29,15.08839701,0.0001252,53.2175,146.6043,84.9123,275.2012,7.5411e-05,9.12e-06,0.0,0 STARLINK-5294,1 54159U 22141C   23253.07881440  .00000912  00000-0  75411-4 0  9995,2 54159  53.2175 146.6043 0001252  84.9123 275.2012 15.08839701 48092,6917.881,95.438,540.612,538.88,0.0
54159.0,STARLINK-5294,PAYLOAD,2023-09-10 03:28:52,15.08841122,0.0001223,53.2171,146.306,81.6355,278.4775,8.5354e-05,1.071e-05,0.0,0 STARLINK-5294,1 54159U 22141C   23253.14505328  .00001071  00000-0  85354-4 0  9995,2 54159  53.2171 146.3060 0001223  81.6355 278.4775 15.08841122 48106,6917.877,95.437,540.588,538.896,0.0
54159.0,STARLINK-5294,PAYLOAD,2023-09-11 09:41:12,15.08843652,0.0001268,53.2165,140.6553,86.9331,273.1806,1.3636e-05,-7.1e-07,0.0,0 STARLINK-5294,1 54159U 22141C   23254.40361507 -.00000071  00000-0  13636-4 0  9998,2 54159  53.2165 140.6553 0001268  86.9331 273.1806 15.08843652 48291,6917.869,95.437,540.611,538.857,0.0
54159.0,STARLINK-5294,PAYLOAD,2023-09-12 01:35:03,15.0884649,0.0001283,53.2164,137.6804,80.1768,279.9369,7.2438e-05,8.65e-06,0.0,0 STARLINK-5294,1 54159U 22141C   23255.06601350  .00000865  00000-0  72438-4 0  9999,2 54159  53.2164 137.6804 0001283  80.1768 279.9369 15.08846490 48394,6917.861,95.437,540.613,538.838,0.0
54159.0,STARLINK-5294,PAYLOAD,2023-09-12 20:39:41,15.08842078,0.0001272,53.2159,134.1121,89.7968,270.317,7.0876e-05,8.4e-06,0.0,0 STARLINK-5294,1 54159U 22141C   23255.86089743  .00000840  00000-0  70876-4 0  9990,2 54159  53.2159 134.1121 0001272  89.7968 270.3170 15.08842078 48514,6917.874,95.437,540.619,538.859,0.0
54159.0,STARLINK-5294,PAYLOAD,2023-09-12 23:50:27,15.08848141,0.0001244,53.2161,133.5173,92.9006,267.2129,0.00010375,1.364e-05,0.0,0 STARLINK-5294,1 54159U 22141C   23255.99337269  .00001364  00000-0  10375-3 0  9992,2 54159  53.2161 133.5173 0001244  92.9006 267.2129 15.08848141 48533,6917.856,95.437,540.581,538.86,0.0
54159.0,STARLINK-5294,PAYLOAD,2023-09-13 22:05:50,15.08852884,0.0001477,53.2163,129.3549,89.5945,270.5216,0.00020521,2.981e-05,0.0,0 STARLINK-5294,1 54159U 22141C   23256.92072826  .00002981  00000-0  20521-3 0  9991,2 54159  53.2163 129.3549 0001477  89.5945 270.5216 15.08852884 48675,6917.841,95.437,540.728,538.684,0.0
54159.0,STARLINK-5294,PAYLOAD,2023-09-14 01:16:36,15.08854521,0.0001524,53.2171,128.7584,94.0833,266.0333,0.00012767,1.745e-05,0.0,0 STARLINK-5294,1 54159U 22141C   23257.05320300  .00001745  00000-0  12767-3 0  9999,2 54159  53.2171 128.7584 0001524  94.0833 266.0333 15.08854521 48698,6917.836,95.437,540.755,538.647,0.0
54159.0,STARLINK-5294,PAYLOAD,2023-09-14 18:45:52,15.08834503,0.0001388,53.2168,125.4888,93.5812,266.5339,-6.551e-05,-1.33e-05,0.0,0 STARLINK-5294,1 54159U 22141C   23257.78186340 -.00001330  00000-0 -65510-4 0  9990,2 54159  53.2168 125.4888 0001388  93.5812 266.5339 15.08834503 48806,6917.897,95.438,540.722,538.802,0.0
54159.0,STARLINK-5294,PAYLOAD,2023-09-14 21:56:39,15.08832736,0.0001364,53.2166,124.8944,90.2234,269.8914,-8.2565e-05,-1.601e-05,0.0,0 STARLINK-5294,1 54159U 22141C   23257.91434486 -.00001601  00000-0 -82565-4 0  9992,2 54159  53.2166 124.8944 0001364  90.2234 269.8914 15.08832736 48829,6917.903,95.438,540.711,538.824,0.0
54159.0,STARLINK-5294,PAYLOAD,2023-09-15 01:07:25,15.08834811,0.0001454,53.2171,124.2983,94.4259,265.6899,-5.8055e-05,-1.212e-05,0.0,0 STARLINK-5294,1 54159U 22141C   23258.04682318 -.00001212  00000-0 -58055-4 0  9991,2 54159  53.2171 124.2983 0001454  94.4259 265.6899 15.08834811 48849,6917.896,95.438,540.767,538.755,0.0
54159.0,STARLINK-5294,PAYLOAD,2023-09-15 17:01:16,15.08841391,0.000134,53.2164,121.3256,94.1803,265.9342,-2.3811e-05,-6.67e-06,0.0,0 STARLINK-5294,1 54159U 22141C   23258.70921968 -.00000667  00000-0 -23811-4 0  9996,2 54159  53.2164 121.3256 0001340  94.1803 265.9342 15.08841391 48946,6917.876,95.437,540.668,538.814,0.0
54159.0,STARLINK-5294,PAYLOAD,2023-09-16 00:58:11,15.08848925,0.0001293,53.2163,119.8393,92.229,267.8851,4.8836e-05,4.9e-06,0.0,0 STARLINK-5294,1 54159U 22141C   23259.04041293  .00000490  00000-0  48836-4 0  9994,2 54159  53.2163 119.8393 0001293  92.2290 267.8851 15.08848925 48996,6917.853,95.437,540.613,538.824,0.0
54159.0,STARLINK-5294,PAYLOAD,2023-09-16 18:27:27,15.0883261,0.0001442,53.2161,116.5689,94.9139,265.2017,0.00019721,2.851e-05,0.0,0 STARLINK-5294,1 54159U 22141C   23259.76906545  .00002851  00000-0  19721-3 0  9996,2 54159  53.2161 116.5689 0001442  94.9139 265.2017 15.08832610 49107,6917.903,95.438,540.766,538.77,0.0
54159.0,STARLINK-5294,PAYLOAD,2023-09-17 00:48:59,15.08840769,0.000147,53.2152,115.3795,92.9748,267.1412,0.00024589,3.628e-05,0.0,0 STARLINK-5294,1 54159U 22141C   23260.03402353  .00003628  00000-0  24589-3 0  9997,2 54159  53.2152 115.3795 0001470  92.9748 267.1412 15.08840769 49145,6917.878,95.438,540.76,538.726,0.0
54159.0,STARLINK-5294,PAYLOAD,2023-09-17 23:04:23,15.08848719,0.0001448,53.2153,111.2161,91.543,268.5728,0.00015641,2.203e-05,0.0,0 STARLINK-5294,1 54159U 22141C   23260.96137899  .00002203  00000-0  15641-3 0  9996,2 54159  53.2153 111.2161 0001448  91.5430 268.5728 15.08848719 49289,6917.854,95.437,540.72,538.717,0.0
54159.0,STARLINK-5294,PAYLOAD,2023-09-18 18:09:01,15.08841795,0.0001427,53.2155,107.6476,88.8503,271.2652,8.1056e-05,1.002e-05,0.0,0 STARLINK-5294,1 54159U 22141C   23261.75626161  .00001002  00000-0  81056-4 0  9999,2 54159  53.2155 107.6476 0001427  88.8503 271.2652 15.08841795 49404,6917.875,95.437,540.727,538.753,0.0
54159.0,STARLINK-5294,PAYLOAD,2023-09-18 21:19:47,15.088498,0.000145,53.2156,107.0521,72.2526,287.8625,0.0002051,2.979e-05,0.0,0 STARLINK-5294,1 54159U 22141C   23261.88873855  .00002979  00000-0  20510-3 0  9998,2 54159  53.2156 107.0521 0001450  72.2526 287.8625 15.08849800 49428,6917.85,95.437,540.719,538.712,0.0
54159.0,STARLINK-5294,PAYLOAD,2023-09-19 00:30:32,15.08856685,0.0001307,53.2151,106.4571,81.4443,278.6697,0.00036169,5.476e-05,0.0,0 STARLINK-5294,1 54159U 22141C   23262.02121498  .00005476  00000-0  36169-3 0  9996,2 54159  53.2151 106.4571 0001307  81.4443 278.6697 15.08856685 49440,6917.829,95.436,540.599,538.79,0.0
54159.0,STARLINK-5294,PAYLOAD,2023-09-19 17:59:47,15.08848011,0.0001416,53.2158,103.1855,69.2489,290.8655,0.00011653,1.568e-05,0.0,0 STARLINK-5294,1 54159U 22141C   23262.74985518  .00001568  00000-0  11653-3 0  9995,2 54159  53.2158 103.1855 0001416  69.2489 290.8655 15.08848011 49557,6917.856,95.437,540.7,538.741,0.0
54159.0,STARLINK-5294,PAYLOAD,2023-09-19 22:45:56,15.08857986,0.0001283,53.2151,102.2944,86.3061,273.8078,0.000283,4.221e-05,0.0,0 STARLINK-5294,1 54159U 22141C   23262.94856925  .00004221  00000-0  28300-3 0  9992,2 54159  53.2151 102.2944 0001283  86.3061 273.8078 15.08857986 49581,6917.825,95.436,540.578,538.803,0.0
